LUOJIA-1 01
1 43485U 18048B   26035.20877216  .00003633  00000-0  41455-3 0  9991
2 43485  97.8213 115.5362 0008919 191.3920 168.7096 14.86688614414458
DIWATA-2B (PO-101)
1 43678U 18084H   26035.16532861  .00001835  00000-0  15359-3 0  9990
2 43678  98.1066 225.8242 0008158 232.1723 127.8761 14.99792201396270
ESHAIL-2
1 43700U 18090A   26035.13468441  .00000000  00000-0  00000+0 0  9998
2 43700   0.0145 118.3122 0002376 240.4635 209.7951  1.00269583 26348
K2SAT
1 43761U 18099D   26035.09340682  .00002432  00000-0  17123-3 0  9994
2 43761  97.4372  80.7291 0013245  82.0905 278.1825 15.05871551392073
AISTECHSAT-2
1 43768U 18099L   26035.10795409  .00006729  00000-0  37542-3 0  9994
2 43768  97.4497  86.0606 0005921  53.3809 306.7966 15.13864830392135
SNUSAT-2
1 43782U 18099AA  26035.08877127  .00011030  00000-0  52180-3 0  9991
2 43782  97.4262  90.6001 0011765  47.8968 312.3265 15.19480449392803
ITASAT-1
1 43786U 18099AE  26035.14260476  .00008917  00000-0  45204-3 0  9994
2 43786  97.4237  89.3522 0014609  96.2754 264.0144 15.17093426392726
IRVINE02
1 43789U 18099AH  26035.19838192  .00637535  16521-3  19240-2 0  9990
2 43789  97.4205 117.0870 0006341 306.2836  53.7852 15.92151713394186
EAGLET-1
1 43790U 18099AJ  26035.13219396  .00004997  00000-0  29616-3 0  9996
2 43790  97.4436  88.2953 0013047  86.6157 273.6566 15.11757023392226
ESEO
1 43792U 18099AL  26035.11995163  .00002501  00000-0  18602-3 0  9991
2 43792  97.4173  78.1136 0013547  70.5316 289.7373 15.03768874391805
HIBER-2
1 43774U 18099S   26028.96940761  .08639631  25068-5  13938-2 0  9990
2 43774  97.4270 113.4809 0009314 286.8843  73.1432 16.33569322393452
MINXSS-2
1 43758U 18099A   26035.16963024  .00034762  00000-0  92673-3 0  9993
2 43758  97.4699 108.3626 0009017  31.0205 329.1570 15.38039394393622
FOX-1CLIFF (AO-95)
1 43770U 18099N   26035.15575995  .00013894  00000-0  58419-3 0  9995
2 43770  97.4583  96.0741 0010600  96.2891 263.9553 15.23474362392945
CORVUS-BC4
1 43767U 18099K   26035.09335712  .00005367  00000-0  32268-3 0  9995
2 43767  97.4264  81.9453 0010126  99.6075 260.6300 15.11228730392299
CZ-4B R/B
1 43656U 18081B   26035.13470859  .00000317  00000-0  11226-3 0  9991
2 43656  99.3742 302.4366 0203986 290.1485  67.7856 14.31804329380264
COSMOS 2504 [i]
1 40555U 15020D   26035.15707398  .00000615  00000-0  22671-3 0  9996
2 40555  82.5224 334.1178 0606926 275.9608  77.2725 13.61311856532091
MERIDIAN-4
1 37398U 11018A   26033.66700775  .00006249  00000-0  41332-2 0  9999
2 37398  62.1218  95.9560 7490941 263.9205  14.9862  2.01000575108062
MERIDIAN-6
1 38995U 12063A   26034.00279086  .00000080  00000-0  00000-0 0  9991
2 38995  64.3256  14.3550 7316851 229.2978  40.0345  2.00518956 96816
MERIDIAN-7
1 40296U 14069A   26034.57768690  .00000078  00000-0  00000+0 0  9998
2 40296  63.4614 228.6411 6702241 271.3987  18.8381  2.00587760 82554
METOP-C
1 43689U 18087A   26035.17592377  .00000141  00000-0  84517-4 0  9996
2 43689  98.6838  97.1045 0001525 148.1442 211.9828 14.21508791375933
FENGYUN-3B
1 37214U 10059A   26035.21389209 -.00000070  00000-0 -12720-4 0  9997
2 37214  98.9827  80.5469 0021717 201.2683 240.6345 14.14807283788627
FENGYUN-3C
1 39260U 13052A   26035.17583618  .00000137  00000-0  90926-4 0  9997
2 39260  98.4835  15.2654 0015563  49.1951 311.0571 14.15717002639746
EWS-G1 (GOES-13)
1 29155U 06018A   26035.13737110  .00000001  00000-0  00000+0 0  9996
2 29155   4.1877  78.0696 0061727 271.3222 234.2908  0.98785976 41933
FENGYUN-2H
1 43491U 18050A   26035.07393076 -.00000131  00000-0  00000+0 0  9991
2 43491   2.6880  80.7194 0002518 182.7795 336.1919  1.00266428 28103
FENGYUN-2G
1 40367U 14090A   26035.07791745 -.00000307  00000-0  00000+0 0  9990
2 40367   5.3024  74.4463 0001728 193.7171 353.5490  1.00263918 40666
INMARSAT 4-F1
1 28628U 05009A   26034.80821155  .00000025  00000-0  00000+0 0  9991
2 28628   4.9876  42.7289 0002339 290.0485 270.2406  1.00271829 76339
INMARSAT 4-F2
1 28899U 05044A   26034.87944767 -.00000268  00000-0  00000+0 0  9992
2 28899   4.9186  43.7983 0002384 284.0170 266.3147  1.00272025 74187
INMARSAT 4-F3
1 33278U 08039A   26035.11015762 -.00000147  00000-0  00000+0 0  9994
2 33278   4.1784  31.0595 0002713 288.7550 116.1094  1.00273365 45211
INMARSAT 4A-F4 (ALPHASAT)
1 39215U 13038A   26035.06364227  .00000128  00000-0  00000+0 0  9991
2 39215   2.9756   2.3888 0002281 317.0515 222.5675  1.00274032 42683
ASTROCAST
1 43798U 18099AS  26035.17975880  .00033408  00000-0  81675-3 0  9997
2 43798  97.4529 110.3374 0005462 349.3267  10.7863 15.40727814393895
JY1SAT (JO-97)
1 43803U 18099AX  26035.12717976  .00019869  00000-0  70688-3 0  9996
2 43803  97.4326  97.8232 0006704  34.3465 325.8207 15.28989632393267
SUOMI-100
1 43804U 18099AY  26035.09821963  .00015849  00000-0  63608-3 0  9993
2 43804  97.4391  96.1784 0011306  36.7621 323.4390 15.25004238393116
GEO-KOMPSAT-2A
1 43823U 18100A   26032.65867184 -.00000354  00000-0  00000-0 0  9991
2 43823   0.0129 103.0044 0000866 282.9359 111.2711  1.00270175 26278
UWE-4
1 43880U 18111E   26034.33972350  .00030913  00000-0  83449-3 0  9999
2 43880  97.5872 317.4461 0012030  86.2702 273.9917 15.37645952390153
D-STAR ONE SPARROW
1 43881U 18111F   26034.25201284  .00061004  00000-0  10838-2 0  9998
2 43881  97.6110 325.3502 0008058  98.6086 261.6078 15.49956275390485
METEOR M2-2
1 44387U 19038A   26035.19647286  .00000360  00000-0  17574-3 0  9992
2 44387  98.9033  20.5981 0002184  60.1018 300.0377 14.24320382342363
MOMENTUS-X1
1 44408U 19038Y   26035.06806191  .00036974  00000-0  52170-3 0  9995
2 44408  97.6965  69.2172 0011071 137.1213 223.0906 15.56437057365783
MERIDIAN-8
1 44453U 19046A   26033.63272752 -.00000083  00000-0  00000-0 0  9990
2 44453  63.0069  67.9686 7030958 274.4712  15.1373  2.00626911 47645
TAURUS-1
1 44530U 19059C   26035.21654428  .00006158  00000-0  10298-2 0  9990
2 44530  98.6258 192.0709 0008353   9.1028 351.0326 14.70215889339092
GAOFEN 12-01
1 44819U 19082A   26035.19666764  .00000594  00000-0  83720-4 0  9999
2 44819  97.8133  45.0795 0004053  82.3519 277.8154 14.80736707334411
CAS-6 (TO-108)
1 44881U 19093C   26035.15905203  .00001458  00000-0  17157-3 0  9990
2 44881  97.7679 110.5807 0014000 159.2247 200.9541 14.86259236331654
ELEKTRO-L3
1 44903U 19095A   26033.36155038 -.00000106  00000-0  00000-0 0  9997
2 44903   0.0568  99.8485 0002508 202.7695  36.0757  1.00270817 22356
DOSAAF-85 (RS-44)
1 44909U 19096E   26035.17747120  .00000015  00000-0  56861-5 0  9993
2 44909  82.5175  68.0947 0218660  95.3672 267.2416 12.79746815285334
MERIDIAN-9
1 45254U 20015A   26033.87278118 -.00000094  00000-0  00000-0 0  9998
2 45254  65.4786 333.3475 6899642 280.1376  14.4807  2.00612444 43595
ION-MK01
1 46274U 20061C   26035.14836806  .00112810  00000-0  67221-3 0  9998
2 46274  97.2063 112.4294 0000872  73.1250 287.0112 15.77611484302347
DEKART
1 46493U 20068H   26035.21748274  .00016311  00000-0  50033-3 0  9999
2 46493  97.8755  35.3056 0011227  46.3199 313.8971 15.33789954295367
NORBY
1 46494U 20068J   26035.10218787  .00029902  00000-0  69936-3 0  9991
2 46494  97.8685  39.9287 0008553  37.4950 322.6890 15.42071471295658
SALSAT (TUBSAT 22)
1 46495U 20068K   26034.48477916  .00010160  00000-0  38041-3 0  9992
2 46495  97.8823  29.6576 0011930  57.5986 302.6405 15.27442654294933
NETSAT-4
1 46504U 20068U   26034.53469972  .00020999  00000-0  54621-3 0  9995
2 46504  97.8621  32.5248 0008513  82.3107 277.9103 15.38914366295186
NETSAT-3
1 46505U 20068V   26034.49498742  .00019367  00000-0  52713-3 0  9995
2 46505  97.8653  30.8999 0008320  94.1916 266.0279 15.37532924295101
NETSAT-1
1 46506U 20068W   26034.51209272  .00016558  00000-0  55703-3 0  9998
2 46506  97.8713  26.7041 0007871 108.2990 251.9107 15.30854312294822
NETSAT-2
1 46507U 20068X   26034.51106255  .00022415  00000-0  56633-3 0  9998
2 46507  97.8636  32.0399 0007062 103.6117 256.5914 15.39803506295124
ARKTIKA-M1
1 47719U 21016A   26033.91008395 -.00000136  00000-0  00000-0 0  9998
2 47719  63.1923  76.7750 7229726 269.3406  15.3006  2.00623064 36097
SIMBA
1 47941U 21022K   26032.71702384  .00222913  00000-0  10076-2 0  9992
2 47941  97.4006 311.6495 0008146 122.7801 237.4255 15.83354813270101
UNISAT-7
1 47945U 21022P   26035.15846215  .00017152  00000-0  48309-3 0  9997
2 47945  97.4013 298.9885 0009558 180.0873 180.0371 15.36471139269409
CSS (TIANHE-1)
1 48274U 21035A   26035.16760326  .00016071  00000-0  20308-3 0  9994
2 48274  41.4675  51.9003 0006041 355.4467   4.6316 15.59165703272370
FENGYUN-4B
1 48808U 21047A   26035.04072660 -.00000337  00000-0  00000+0 0  9996
2 48808   0.1205  72.5229 0009125 299.5577 241.4161  1.00274000 17232
CUTE-LASP
1 49263U 21088D   26035.17820639  .00039961  00000-0  42716-3 0  9996
2 49263  97.4275 125.5818 0004594  78.2782 281.8992 15.63790078241637
JILIN-01 GAOFEN 2F
1 49338U 21097A   26035.12445622  .00004852  00000-0  33106-3 0  9993
2 49338  97.6508 161.9305 0018258 323.6074  36.3911 15.06553385236272
TEIKYOSAT-4 (OORURI)
1 49396U 21102B   26035.05638132  .00002273  00000-0  14764-3 0  9990
2 49396  97.3834  69.6460 0013167  37.5110 322.7036 15.08944192232646
Z-SAT
1 49399U 21102E   26035.14950741  .00005265  00000-0  26836-3 0  9993
2 49399  97.3510  74.4880 0016859 357.7499   2.3656 15.17065346233261
KOSEN-1
1 49402U 21102H   26035.07959758  .00009621  00000-0  39094-3 0  9997
2 49402  97.3389  79.8755 0013208 323.4062  36.6272 15.24689230233728
CAMSAT XW-3 (CAS-9)
1 50466U 21131B   26035.24922963  .00000573  00000-0  19132-3 0  9996
2 50466  98.5002 128.3929 0005015 129.7398 230.4233 14.41203846215964
INSPIRESAT-1
1 51657U 22013B   26035.09159286  .00099805  00000-0  81953-3 0  9998
2 51657  97.4554  80.1644 0004960 152.7304 207.4220 15.70129847221594
GOES-18
1 51850U 22021A   26034.38917028  .00000088  00000-0  00000-0 0  9995
2 51850   0.0151  77.4850 0000689 284.3351 134.8197  1.00271617  5258
